[{"OBJECT_NAME":"LEMUR-2-FURIAUS","OBJECT_ID":"2017-042R","EPOCH":"2026-03-09T23:04:27.745536","MEAN_MOTION":15.26272951,"ECCENTRICITY":0.00075374,"INCLINATION":97.3753,"RA_OF_ASC_NODE":248.499,"ARG_OF_PERICENTER":55.8686,"MEAN_ANOMALY":304.3266,"EPHEMERIS_TYPE":0,"CLASSIFICATION_TYPE":"U","NORAD_CAT_ID":42840,"ELEMENT_SET_NO":999,"REV_AT_EPOCH":47305,"BSTAR":0.00099966194,"MEAN_MOTION_DOT":0.00025928,"MEAN_MOTION_DDOT":0},{"OBJECT_NAME":"STARLINK-30385","OBJECT_ID":"2023-134H","EPOCH":"2026-03-09T22:00:01.999584","MEAN_MOTION":15.26742609,"ECCENTRICITY":0.00013436,"INCLINATION":43,"RA_OF_ASC_NODE":181.6427,"ARG_OF_PERICENTER":270.2641,"MEAN_ANOMALY":188.4405,"EPHEMERIS_TYPE":0,"CLASSIFICATION_TYPE":"U","NORAD_CAT_ID":57778,"ELEMENT_SET_NO":999,"REV_AT_EPOCH":562,"BSTAR":0.00022289209,"MEAN_MOTION_DOT":5.724e-5,"MEAN_MOTION_DDOT":0}]
